NORAD_CAT_ID,OBJECT_NAME,OBJECT_TYPE,EPOCH,MEAN_MOTION,ECCENTRICITY,INCLINATION,RA_OF_ASC_NODE,ARG_OF_PERICENTER,MEAN_ANOMALY,BSTAR,MEAN_MOTION_DOT,MEAN_MOTION_DDOT,TLE_LINE0,TLE_LINE1,TLE_LINE2,SEMIMAJOR_AXIS,PERIOD,APOGEE,PERIGEE,DECAYED
50191.0,STARLINK-3273,PAYLOAD,2023-04-09 23:16:42,15.08842923,0.0001114,53.2166,358.8361,91.084,269.028,0.00018341,2.633e-05,0.0,0 STARLINK-3273,1 50191U 21125AM  23099.96993867  .00002633  00000-0  18341-3 0  9991,2 50191  53.2166 358.8361 0001114  91.0840 269.0280 15.08842923 72631,6917.871,95.437,540.507,538.966,0.0
50191.0,STARLINK-3273,PAYLOAD,2023-04-10 04:02:51,15.08857989,0.0001211,53.2162,357.9439,90.7698,269.3433,0.00053137,8.183e-05,0.0,0 STARLINK-3273,1 50191U 21125AM  23100.16865691  .00008183  00000-0  53137-3 0  9997,2 50191  53.2162 357.9439 0001211  90.7698 269.3433 15.08857989 72662,6917.825,95.436,540.528,538.853,0.0
50191.0,STARLINK-3273,PAYLOAD,2023-04-10 16:45:57,15.08850451,0.0001457,53.2156,355.5652,86.2516,273.8643,0.00043254,6.605e-05,0.0,0 STARLINK-3273,1 50191U 21125AM  23100.69858237  .00006605  00000-0  43254-3 0  9999,2 50191  53.2156 355.5652 0001457  86.2516 273.8643 15.08850451 72746,6917.848,95.437,540.721,538.706,0.0
50191.0,STARLINK-3273,PAYLOAD,2023-04-11 02:18:15,15.08857615,0.0001397,53.2159,353.7802,86.6445,273.4707,0.00034607,5.227e-05,0.0,0 STARLINK-3273,1 50191U 21125AM  23101.09601682  .00005227  00000-0  34607-3 0  9995,2 50191  53.2159 353.7802 0001397  86.6445 273.4707 15.08857615 75888,6917.827,95.436,540.658,538.725,0.0
50191.0,STARLINK-3273,PAYLOAD,2023-04-11 21:22:53,15.08838179,9.34e-05,53.216,350.2124,105.9033,254.2062,0.00012446,1.694e-05,0.0,0 STARLINK-3273,1 50191U 21125AM  23101.89089912  .00001694  00000-0  12446-3 0  9990,2 50191  53.2160 350.2124 0000934 105.9033 254.2062 15.08838179 76003,6917.886,95.438,540.397,539.105,0.0
50191.0,STARLINK-3273,PAYLOAD,2023-04-12 02:09:03,15.08844258,0.0001078,53.2162,349.32,88.1329,271.9787,0.00039628,6.025e-05,0.0,0 STARLINK-3273,1 50191U 21125AM  23102.08961989  .00006025  00000-0  39628-3 0  9999,2 50191  53.2162 349.3200 0001078  88.1329 271.9787 15.08844258 76037,6917.867,95.437,540.478,538.987,0.0
50191.0,STARLINK-3273,PAYLOAD,2023-04-13 01:59:50,15.08842515,0.0001124,53.2165,344.8587,80.4476,279.6643,0.00048039,7.366e-05,0.0,0 STARLINK-3273,1 50191U 21125AM  23103.08322227  .00007366  00000-0  48039-3 0  9991,2 50191  53.2165 344.8587 0001124  80.4476 279.6643 15.08842515 76184,6917.873,95.437,540.515,538.96,0.0
50191.0,STARLINK-3273,PAYLOAD,2023-04-14 00:15:13,15.08853002,8.73e-05,53.2163,340.6974,85.8224,274.2868,0.00052666,8.107e-05,0.0,0 STARLINK-3273,1 50191U 21125AM  23104.01057658  .00008107  00000-0  52666-3 0  9993,2 50191  53.2163 340.6974 0000873  85.8224 274.2868 15.08853002 76325,6917.841,95.437,540.31,539.102,0.0
50191.0,STARLINK-3273,PAYLOAD,2023-04-14 16:09:04,15.08897035,5.06e-05,53.2156,337.7238,60.7535,299.3508,0.0020231,0.00032107,0.0,0 STARLINK-3273,1 50191U 21125AM  23104.67296760  .00032107  00000-0  20231-2 0  9993,2 50191  53.2156 337.7238 0000506  60.7535 299.3508 15.08897035 73349,6917.706,95.434,539.921,539.221,0.0
50191.0,STARLINK-3273,PAYLOAD,2023-04-15 00:06:00,15.08852091,9.48e-05,53.2166,336.2361,88.1862,271.9239,0.00048846,7.497e-05,0.0,0 STARLINK-3273,1 50191U 21125AM  23105.00417660  .00007497  00000-0  48846-3 0  9992,2 50191  53.2166 336.2361 0000948  88.1862 271.9239 15.08852091 73393,6917.843,95.437,540.364,539.053,0.0
50191.0,STARLINK-3273,PAYLOAD,2023-04-15 01:41:23,15.08853543,9.54e-05,53.2165,335.9387,88.2607,271.8494,0.0005309,8.175e-05,0.0,0 STARLINK-3273,1 50191U 21125AM  23105.07041597  .00008175  00000-0  53090-3 0  9992,2 50191  53.2165 335.9387 0000954  88.2607 271.8494 15.08853543 76489,6917.839,95.437,540.364,539.044,0.0
50191.0,STARLINK-3273,PAYLOAD,2023-04-15 22:21:25,15.08842205,9.02e-05,53.215,332.074,118.6131,241.4952,0.0004357,6.654e-05,0.0,0 STARLINK-3273,1 50191U 21125AM  23105.93154206  .00006654  00000-0  43570-3 0  9991,2 50191  53.2150 332.0740 0000902 118.6131 241.4952 15.08842205 73535,6917.874,95.437,540.363,539.115,0.0
50191.0,STARLINK-3273,PAYLOAD,2023-04-16 14:15:16,15.08842604,0.0001306,53.2151,329.0981,94.9732,265.1409,0.00083091,0.00012962,0.0,0 STARLINK-3273,1 50191U 21125AM  23106.59394563  .00012962  00000-0  83091-3 0  9997,2 50191  53.2151 329.0981 0001306  94.9732 265.1409 15.08842604 73635,6917.872,95.437,540.641,538.834,0.0
50191.0,STARLINK-3273,PAYLOAD,2023-04-16 20:36:49,15.08847782,0.0001223,53.2151,327.9087,119.1986,240.9129,0.00096662,0.00015132,0.0,0 STARLINK-3273,1 50191U 21125AM  23106.85890368  .00015132  00000-0  96662-3 0  9990,2 50191  53.2151 327.9087 0001223 119.1986 240.9129 15.08847782 76756,6917.857,95.437,540.568,538.876,0.0
50191.0,STARLINK-3273,PAYLOAD,2023-04-17 14:06:03,15.08845293,0.0001043,53.2147,324.638,110.8232,249.2872,0.0007407,0.00011522,0.0,0 STARLINK-3273,1 50191U 21125AM  23107.58754601  .00011522  00000-0  74070-3 0  9998,2 50191  53.2147 324.6380 0001043 110.8232 249.2872 15.08845293 76867,6917.864,95.437,540.451,539.008,0.0
50191.0,STARLINK-3273,PAYLOAD,2023-04-17 20:27:36,15.08843507,0.0001115,53.2153,323.4485,109.4112,250.7001,0.00067438,0.00010462,0.0,0 STARLINK-3273,1 50191U 21125AM  23107.85250725  .00010462  00000-0  67438-3 0  9998,2 50191  53.2153 323.4485 0001115 109.4112 250.7001 15.08843507 73828,6917.87,95.437,540.506,538.963,0.0
50191.0,STARLINK-3273,PAYLOAD,2023-04-17 23:38:22,15.08845768,9.97e-05,53.2152,322.8537,107.1238,252.9864,0.00063862,9.892e-05,0.0,0 STARLINK-3273,1 50191U 21125AM  23107.98498683  .00009892  00000-0  63862-3 0  9991,2 50191  53.2152 322.8537 0000997 107.1238 252.9864 15.08845768 76925,6917.863,95.437,540.417,539.038,0.0
50191.0,STARLINK-3273,PAYLOAD,2023-04-18 20:18:23,15.08842845,0.0001083,53.2145,318.9879,102.9169,257.1944,0.00038742,5.884e-05,0.0,0 STARLINK-3273,1 50191U 21125AM  23108.84610988  .00005884  00000-0  38742-3 0  9997,2 50191  53.2145 318.9879 0001083 102.9169 257.1944 15.08842845 77059,6917.872,95.437,540.486,538.987,0.0
50191.0,STARLINK-3273,PAYLOAD,2023-04-18 23:29:10,15.08849211,0.0001013,53.2157,318.3938,91.5729,268.5379,0.00067356,0.00010451,0.0,0 STARLINK-3273,1 50191U 21125AM  23108.97858861  .00010451  00000-0  67356-3 0  9994,2 50191  53.2157 318.3938 0001013  91.5729 268.5379 15.08849211 77074,6917.852,95.437,540.418,539.016,0.0
50191.0,STARLINK-3273,PAYLOAD,2023-04-19 20:09:10,15.08855271,0.0001065,53.2154,314.5285,82.2589,277.8524,0.00045895,7.027e-05,0.0,0 STARLINK-3273,1 50191U 21125AM  23109.83970417  .00007027  00000-0  45895-3 0  9991,2 50191  53.2154 314.5285 0001065  82.2589 277.8524 15.08855271 77205,6917.834,95.437,540.435,538.962,0.0
50191.0,STARLINK-3273,PAYLOAD,2023-04-19 23:19:56,15.08862962,8.96e-05,53.2153,313.9319,93.2222,266.8873,0.00074237,0.00011554,0.0,0 STARLINK-3273,1 50191U 21125AM  23109.97218127  .00011554  00000-0  74237-3 0  9991,2 50191  53.2153 313.9319 0000896  93.2222 266.8873 15.08862962 77224,6917.81,95.436,540.295,539.055,0.0
50191.0,STARLINK-3273,PAYLOAD,2023-04-20 19:59:57,15.08845643,0.0001627,53.2173,310.0671,89.554,270.5638,0.0001575,2.22e-05,0.0,0 STARLINK-3273,1 50191U 21125AM  23110.83330386  .00002220  00000-0  15750-3 0  9995,2 50191  53.2173 310.0671 0001627  89.5540 270.5638 15.08845643 74279,6917.863,95.437,540.854,538.603,0.0
50191.0,STARLINK-3273,PAYLOAD,2023-04-21 00:46:06,15.08848639,0.0001093,53.2154,309.1742,83.9095,276.2021,0.00019975,2.893e-05,0.0,0 STARLINK-3273,1 50191U 21125AM  23111.03202302  .00002893  00000-0  19975-3 0  9993,2 50191  53.2154 309.1742 0001093  83.9095 276.2021 15.08848639 77388,6917.854,95.437,540.475,538.963,0.0
50191.0,STARLINK-3273,PAYLOAD,2023-04-21 19:50:44,15.08843576,0.0001163,53.2131,305.6067,94.16,265.9525,0.0002043,2.965e-05,0.0,0 STARLINK-3273,1 50191U 21125AM  23111.82690456  .00002965  00000-0  20430-3 0  9999,2 50191  53.2131 305.6067 0001163  94.1600 265.9525 15.08843576 74429,6917.869,95.437,540.539,538.93,0.0
50191.0,STARLINK-3273,PAYLOAD,2023-04-22 05:23:04,15.08833179,0.0001416,53.2148,303.8215,85.6624,274.453,0.00025804,3.82e-05,0.0,0 STARLINK-3273,1 50191U 21125AM  23112.22435187  .00003820  00000-0  25804-3 0  9993,2 50191  53.2148 303.8215 0001416  85.6624 274.4530 15.08833179 74489,6917.901,95.438,540.746,538.787,0.0
50191.0,STARLINK-3273,PAYLOAD,2023-04-22 11:44:36,15.0883747,0.000116,53.2154,302.6317,82.8255,277.2869,0.00010126,1.324e-05,0.0,0 STARLINK-3273,1 50191U 21125AM  23112.48930887  .00001324  00000-0  10126-3 0  9996,2 50191  53.2154 302.6317 0001160  82.8255 277.2869 15.08837470 77602,6917.888,95.438,540.556,538.951,0.0
50191.0,STARLINK-3273,PAYLOAD,2023-04-22 19:41:31,15.08843537,0.000104,53.2148,301.1456,84.9229,275.1881,0.00023111,3.393e-05,0.0,0 STARLINK-3273,1 50191U 21125AM  23112.82050691  .00003393  00000-0  23111-3 0  9996,2 50191  53.2148 301.1456 0001040  84.9229 275.1881 15.08843537 77651,6917.87,95.437,540.454,539.015,0.0
50191.0,STARLINK-3273,PAYLOAD,2023-04-23 11:35:23,15.08833272,0.0001208,53.2153,298.1729,78.0678,282.045,3.5644e-05,2.79e-06,0.0,0 STARLINK-3273,1 50191U 21125AM  23113.48291328  .00000279  00000-0  35644-4 0  9998,2 50191  53.2153 298.1729 0001208  78.0678 282.0450 15.08833272 77758,6917.901,95.438,540.602,538.93,0.0
50191.0,STARLINK-3273,PAYLOAD,2023-04-23 21:07:42,15.08841447,0.0001105,53.2162,296.3898,88.0989,272.0129,0.00015358,2.157e-05,0.0,0 STARLINK-3273,1 50191U 21125AM  23113.88035245  .00002157  00000-0  15358-3 0  9992,2 50191  53.2162 296.3898 0001105  88.0989 272.0129 15.08841447 77819,6917.876,95.437,540.505,538.977,0.0
50191.0,STARLINK-3273,PAYLOAD,2023-04-24 11:26:09,15.08875457,0.000107,53.2155,293.7121,82.6335,277.4778,0.00089183,0.00013948,0.0,0 STARLINK-3273,1 50191U 21125AM  23114.47650126  .00013948  00000-0  89183-3 0  9996,2 50191  53.2155 293.7121 0001070  82.6335 277.4778 15.08875457 74822,6917.772,95.435,540.377,538.897,0.0
